MIDORI II (ADEOS-II)    
1 27597U 02056A   24126.86713433  .00000437  00000+0  19292-3 0  9992
2 27597  98.6893  73.7339 0001674 118.0021 242.1330 14.28312258114218
H-2A R/B                
1 27601U 02056E   24126.89896793  .00000568  00000+0  21721-3 0  9997
2 27601  98.2280 106.0723 0071565   8.7232  12.7718 14.32767756117713
CZ-4B R/B               
1 28059U 03049C   24127.13271599  .00000590  00000+0  15033-3 0  9991
2 28059  98.6080  88.3284 0050210 123.6423 236.9577 14.53706953 88816
CZ-2C R/B               
1 28222U 04012C   24126.92051981  .00010932  00000+0  43524-3 0  9998
2 28222  97.8056 138.0671 0034863 194.3099 165.7154 15.24868439100659
SL-16 R/B               
1 28353U 04021B   24127.22587390 -.00000031  00000+0  85019-5 0  9992
2 28353  71.0020 203.5187 0006470 319.9817  40.0828 14.14409640 27749
CZ-4B R/B               
1 28415U 04035C   24126.94379710  .00005968  00000+0  31572-3 0  9995
2 28415  97.4273 161.5528 0043996 167.7607 192.4705 15.14973636 77565
CZ-2C R/B               
1 28480U 04046B   24127.49090230  .00000500  00000+0  20317-3 0  9999
2 28480  98.1600  74.5131 0140404 343.2119  16.4440 14.26338201 12658
ARIANE 5 R/B            
1 28499U 04049H   24127.14667162  .00001238  00000+0  15159-3 0  9995
2 28499  98.1779 264.1533 0088497   9.8171 350.4744 14.82431113 46062
CZ-2D R/B               
1 28738U 05024B   24127.55150592  .00012381  00000+0  49853-3 0  9993
2 28738  97.3633 126.7463 0006675 295.6396  64.4151 15.24987297 36323
SUZAKU (ASTRO-EII)      
1 28773U 05025A   24127.19441650  .00030422  00000+0  66617-3 0  9994
2 28773  31.3888  63.9104 0003320 247.0968 112.9336 15.42898048 40511
ALOS (DAICHI)           
1 28931U 06002A   24127.44579013  .00002092  00000+0  39440-3 0  9995
2 28931  98.0344  81.4103 0000749  66.1625 293.9658 14.65545069975239
H-2A R/B                
1 28932U 06002B   24126.84127279  .00005288  00000+0  40185-3 0  9990
2 28932  98.2069 216.1808 0072214 345.5000  14.4149 15.00564368992987
RESURS-DK 1             
1 29228U 06021A   24126.54416395  .00002639  00000+0  18259-3 0  9991
2 29228  69.9341 171.0981 0001097  49.8307 310.2952 15.07000440985928
GENESIS 1               
1 29252U 06029A   24127.55554409  .00019193  00000+0  53247-3 0  9996
2 29252  64.5163 306.4640 0018726 328.2728  31.7274 15.36828042984257
CZ-4B R/B               
1 29507U 06046C   24126.67261796  .00004327  00000+0  28649-3 0  9995
2 29507  97.6469 162.9799 0042065  63.6557 296.8980 15.07134645958312
CZ-2C R/B               
1 31114U 07010B   24126.90179723  .00000208  00000+0  11508-3 0  9998
2 31114  98.3259 265.4521 0060623  91.6523 269.1599 14.19766486884234
COSMO-SKYMED 1          
1 31598U 07023A   24127.48193588  .00000956  00000+0  12658-3 0  9994
2 31598  97.8868 311.2403 0001482  87.0894 273.0489 14.82158860915011
GENESIS 2               
1 31789U 07028A   24127.02943819  .00015460  00000+0  45036-3 0  9993
2 31789  64.4922 353.6480 0027053 223.5496 136.3500 15.35224465931002
COSMOS 2428             
1 31792U 07029A   24127.21091136 -.00000110  00000+0 -33522-4 0  9991
2 31792  70.9444 174.8481 0007449 114.8296 245.3601 14.12718116869196
SL-16 R/B               
1 31793U 07029B   24127.23158285  .00000311  00000+0  18667-3 0  9996
2 31793  70.9740 145.7378 0002695 273.1293 160.5370 14.14620938870359
KORONAS-FOTON           
1 33504U 09003A   24127.36125364  .00009146  00000+0  35872-3 0  9990
2 33504  82.4379 245.0946 0015886  33.2041 327.0190 15.25486246842774
CZ-2C R/B               
1 37731U 11030B   24127.19232900  .00002493  00000+0  34770-3 0  9999
2 37731  97.7608  92.6171 0056885  18.2141 352.7139 14.77476718690642
H-2A R/B                
1 38341U 12025E   24127.19484235  .00003488  00000+0  37576-3 0  9994
2 38341  98.4265  36.0957 0050632 346.0148  13.9661 14.88259997648025
CUSAT 2 & FALCON 9 R/B  
1 39271U 13055G   24127.44440523  .00073685  10345-6  89907-3 0  9992
2 39271  80.9310 129.8481 0326351  86.9742 276.8773 15.16322502559033
SHIJIAN-16 (SJ-16)      
1 39358U 13057A   24127.51509263  .00002588  00000+0  27988-3 0  9990
2 39358  74.9759  14.4019 0018268 295.6535  64.2763 14.88618293571416
CZ-2C R/B               
1 39364U 13059B   24127.13705585  .00168583  00000+0  87066-3 0  9993
2 39364  97.0431 176.1580 0011284 324.0661  35.9848 15.80562344586595
SL-4 R/B                
1 39679U 14021B   24126.93622734  .00006703  00000+0  26062-3 0  9997
2 39679  51.6109 328.9154 0139265 208.0748 151.2668 15.18725572553347
ALOS-2                  
1 39766U 14029A   24127.51597836  .00004143  00000+0  56127-3 0  9992
2 39766  97.9212 224.7535 0001687  98.1066 262.0336 14.79471782537516
SL-27 R/B               
1 40354U 14084B   24127.55973168  .00048108  00000+0  37410-3 0  9991
2 40354  74.7234 300.4370 0019931 128.5943 231.7074 15.71257112527995
YAOGAN-29               
1 41038U 15069A   24127.51138231  .00000858  00000+0  11592-3 0  9998
2 41038  98.0568 141.6772 0002732  49.3182 310.8267 14.81677335456291
ASTRO-H (HITOMI)        
1 41337U 16012A   24127.30971591  .00003952  00000+0  27696-3 0  9990
2 41337  31.0032 355.7674 0010904  77.7873 282.3984 15.03445114450710
HXMT (HUIYAN)           
1 42758U 17034A   24127.47373511  .00006417  00000+0  36150-3 0  9993
2 42758  43.0133 145.5415 0016327 256.4174 103.4854 15.13682022380539
CZ-2C R/B               
1 43521U 18054D   24127.13461399  .00017088  00000+0  59673-3 0  9991
2 43521  35.1493  22.3951 0057258 109.8489 250.8413 15.27145467324431
SAOCOM 1A               
1 43641U 18076A   24127.49045633  .00000873  00000+0  11621-3 0  9991
2 43641  97.8891 314.3198 0001437  88.1032 272.0345 14.82158407301791
H-2A R/B                
1 43682U 18084L   24127.20568697  .00011144  00000+0  60458-3 0  9999
2 43682  98.8516 207.8444 0046293 149.3281 211.0667 15.13848043303144
SAOCOM 1B               
1 46265U 20059A   24127.52174054  .00000868  00000+0  11564-3 0  9994
2 46265  97.8890 313.4429 0001372  84.1107 276.0262 14.82127951199190
CSS (TIANHE)            
1 48274U 21035A   24127.51440493  .00043308  00000+0  46033-3 0  9998
2 48274  41.4682 337.6906 0003928 297.8328  62.2113 15.63235051172575
COSMOS 2550             
1 48865U 21056A   24127.55331543 -.00000021  00000+0  52055-5 0  9995
2 48865  67.1397 274.2509 0008396 270.1743  89.8449 15.33833692160399
2022-019U               
1 51842U 22019U   24127.53480782  .00114065  00000+0  10858-2 0  9997
2 51842  97.5109 231.2427 0029554 245.2755 114.5428 15.65892948122578
CZ-2C R/B               
1 52794U 22058K   24126.29644261  .00012319  00000+0  49809-3 0  9991
2 52794  50.1651  91.2488 0082322 316.5598  42.8892 15.21982672106589
XRISM                   
1 57800U 23137A   24127.13271620  .00005668  00000+0  43095-3 0  9992
2 57800  31.0031 280.2143 0009689 150.1243 209.9947 15.00645223 36364
